NORAD_CAT_ID,OBJECT_NAME,OBJECT_TYPE,EPOCH,MEAN_MOTION,ECCENTRICITY,INCLINATION,RA_OF_ASC_NODE,ARG_OF_PERICENTER,MEAN_ANOMALY,BSTAR,MEAN_MOTION_DOT,MEAN_MOTION_DDOT,TLE_LINE0,TLE_LINE1,TLE_LINE2,SEMIMAJOR_AXIS,PERIOD,APOGEE,PERIGEE,DECAYED
56771.0,STARLINK-6339,PAYLOAD,2023-10-24 11:18:14,15.6991676,0.0003381,69.9971,2.2653,276.2472,83.8339,1.2743e-05,1.319e-05,0.0,0 STARLINK-6339,1 56771U 23078E   23297.47100467  .00001319  00000-0  12743-4 0  9993,2 56771  69.9971   2.2653 0003381 276.2472  83.8339 15.69916760 22998,6737.272,91.725,361.415,356.859,0.0
56771.0,STARLINK-6339,PAYLOAD,2023-10-25 13:18:01,15.69920114,0.0003206,69.9972,359.2214,271.7834,88.2995,8.4407e-06,8.02e-06,0.0,0 STARLINK-6339,1 56771U 23078E   23298.55418577  .00000802  00000-0  84407-5 0  9990,2 56771  69.9972 359.2214 0003206 271.7834  88.2995 15.69920114 23429,6737.263,91.724,361.288,356.968,0.0
56771.0,STARLINK-6339,PAYLOAD,2023-10-26 13:46:04,15.69906668,0.0001542,69.9984,356.3545,266.3303,93.7716,2.4899e-05,2.78e-05,0.0,0 STARLINK-6339,1 56771U 23078E   23299.57366037  .00002780  00000-0  24899-4 0  9991,2 56771  69.9984 356.3545 0001542 266.3303  93.7716 15.69906668 23328,6737.301,91.725,360.205,358.127,0.0
56771.0,STARLINK-6339,PAYLOAD,2023-10-27 05:03:34,15.69928799,0.0003298,69.9986,354.5637,269.0112,91.0706,1.1366e-05,1.154e-05,0.0,0 STARLINK-6339,1 56771U 23078E   23300.21081226  .00001154  00000-0  11366-4 0  9998,2 56771  69.9986 354.5637 0003298 269.0112  91.0706 15.69928799 23688,6737.238,91.724,361.325,356.881,0.0
56771.0,STARLINK-6339,PAYLOAD,2023-10-27 11:11:12,15.69430135,0.0002737,69.9986,353.8497,199.3617,160.7475,-0.0005322,-0.00062439,0.0,0 STARLINK-6339,1 56771U 23078E   23300.46611955 -.00062439  00000-0 -53220-3 0  9992,2 56771  69.9986 353.8497 0002737 199.3617 160.7475 15.69430135 23720,6738.665,91.753,362.374,358.685,0.0
56771.0,STARLINK-6339,PAYLOAD,2023-10-28 10:06:52,15.69927139,0.0002448,69.9982,351.1597,246.4852,113.6087,3.2122e-05,3.652e-05,0.0,0 STARLINK-6339,1 56771U 23078E   23301.42144244  .00003652  00000-0  32122-4 0  9990,2 56771  69.9982 351.1597 0002448 246.4852 113.6087 15.69927139 23879,6737.242,91.724,360.757,357.458,0.0
56771.0,STARLINK-6339,PAYLOAD,2023-10-28 13:10:23,15.69914428,0.0002747,69.9978,350.8013,255.5286,104.5605,1.5962e-05,1.706e-05,0.0,0 STARLINK-6339,1 56771U 23078E   23301.54888697  .00001706  00000-0  15962-4 0  9991,2 56771  69.9978 350.8013 0002747 255.5286 104.5605 15.69914428 23633,6737.279,91.725,360.995,357.293,0.0
56771.0,STARLINK-6339,PAYLOAD,2023-10-29 04:27:53,15.69943101,0.0003007,69.997,349.008,269.3163,90.7688,1.1191e-05,1.134e-05,0.0,0 STARLINK-6339,1 56771U 23078E   23302.18603497  .00001134  00000-0  11191-4 0  9990,2 56771  69.9970 349.0080 0003007 269.3163  90.7688 15.69943101 23992,6737.197,91.723,361.088,357.036,0.0
56771.0,STARLINK-6339,PAYLOAD,2023-10-29 13:38:23,15.69891478,0.0014287,69.9979,347.9341,224.7695,135.2349,-7.9941e-07,-3.16e-06,0.0,0 STARLINK-6339,1 56771U 23078E   23302.56832481 -.00000316  00000-0 -79941-6 0  9991,2 56771  69.9979 347.9341 0014287 224.7695 135.2349 15.69891478 23791,6737.344,91.726,368.835,349.584,0.0
56771.0,STARLINK-6339,PAYLOAD,2023-10-30 20:00:01,15.69961997,0.0003336,70.0,344.3773,267.5871,39.7642,-0.00047805,-0.00057393,0.0,0 STARLINK-6339,1 56771U 23078E   23303.83334491 -.00057393  00000-0 -47805-3 0  9998,2 56771  70.0000 344.3773 0003336 267.5871  39.7642 15.69961997 24253,6737.143,91.722,361.255,356.76,0.0
56771.0,STARLINK-6339,PAYLOAD,2023-10-30 22:00:00,15.69928919,0.0003373,70.0001,344.143,265.2371,152.9651,8.5281e-06,8.13e-06,0.0,0 STARLINK-6339,1 56771U 23078E   23303.91667824  .00000813  00000-0  85281-5 0  9991,2 56771  70.0001 344.1430 0003373 265.2371 152.9651 15.69928919  5998,6737.237,91.724,361.375,356.83,0.0
56771.0,STARLINK-6339,PAYLOAD,2023-10-31 03:52:11,15.69943573,0.000279,69.9979,343.4535,242.6394,117.4518,1.7047e-05,1.839e-05,0.0,0 STARLINK-6339,1 56771U 23078E   23304.16124135  .00001839  00000-0  17047-4 0  9995,2 56771  69.9979 343.4535 0002790 242.6394 117.4518 15.69943573 24300,6737.195,91.723,360.94,357.181,0.0
56771.0,STARLINK-6339,PAYLOAD,2023-10-31 11:30:58,15.69913789,0.0003226,69.9984,342.5598,273.8108,86.2719,-1.255e-05,-1.721e-05,0.0,0 STARLINK-6339,1 56771U 23078E   23304.47984905 -.00001721  00000-0 -12550-4 0  9994,2 56771  69.9984 342.5598 0003226 273.8108  86.2719 15.69913789 24356,6737.281,91.725,361.319,356.972,0.0
56771.0,STARLINK-6339,PAYLOAD,2023-10-31 13:02:43,15.69915719,0.0002972,69.9982,342.3801,268.741,91.3445,-1.0881e-05,-1.52e-05,0.0,0 STARLINK-6339,1 56771U 23078E   23304.54356477 -.00001520  00000-0 -10881-4 0  9991,2 56771  69.9982 342.3801 0002972 268.7410  91.3445 15.69915719 24106,6737.275,91.725,361.142,357.138,0.0
56771.0,STARLINK-6339,PAYLOAD,2023-11-01 04:20:14,15.69927763,0.0003896,69.998,340.5885,286.0861,73.9906,-1.406e-05,-1.904e-05,0.0,0 STARLINK-6339,1 56771U 23078E   23305.18072751 -.00001904  00000-0 -14060-4 0  9991,2 56771  69.9980 340.5885 0003896 286.0861  73.9906 15.69927763 24464,6737.241,91.724,361.73,356.481,0.0
56771.0,STARLINK-6339,PAYLOAD,2023-11-01 11:59:01,15.69916982,0.0003306,69.9991,339.6942,278.0227,82.0594,-2.5378e-05,-3.262e-05,0.0,0 STARLINK-6339,1 56771U 23078E   23305.49931908 -.00003262  00000-0 -25378-4 0  9996,2 56771  69.9991 339.6942 0003306 278.0227  82.0594 15.69916982 24513,6737.272,91.725,361.364,356.909,0.0
56771.0,STARLINK-6339,PAYLOAD,2023-11-01 19:37:45,15.69928807,0.0003304,69.9962,338.7983,270.7866,89.2951,1.2889e-05,1.337e-05,0.0,0 STARLINK-6339,1 56771U 23078E   23305.81788865  .00001337  00000-0  12889-4 0  9996,2 56771  69.9962 338.7983 0003304 270.7866  89.2951 15.69928807 24562,6737.238,91.724,361.329,356.877,0.0
56771.0,STARLINK-6339,PAYLOAD,2023-11-02 14:00:01,15.69946295,0.0003543,70.0,336.6447,280.8725,84.0265,-0.00031339,-0.00037762,0.0,0 STARLINK-6339,1 56771U 23078E   23306.58334491 -.00037762  00000-0 -31339-3 0  9996,2 56771  70.0000 336.6447 0003543 280.8725  84.0265 15.69946295  5944,6737.188,91.723,361.44,356.666,0.0
56771.0,STARLINK-6339,PAYLOAD,2023-11-02 20:00:01,15.69890009,0.0003401,70.0004,335.9416,275.9482,61.4739,0.00024933,0.00029832,0.0,0 STARLINK-6339,1 56771U 23078E   23306.83334491  .00029832  00000-0  24933-3 0  9993,2 56771  70.0004 335.9416 0003401 275.9482  61.4739 15.69890009 24727,6737.349,91.726,361.505,356.922,0.0
56771.0,STARLINK-6339,PAYLOAD,2023-11-02 22:00:01,15.69859413,0.0003447,70.0005,335.7074,273.9773,174.3462,0.00091673,0.00111191,0.0,0 STARLINK-6339,1 56771U 23078E   23306.91668981  .00111191  00000-0  91673-3 0  9991,2 56771  70.0005 335.7074 0003447 273.9773 174.3462 15.69859413  5996,6737.436,91.728,361.624,356.979,0.0
56771.0,STARLINK-6339,PAYLOAD,2023-11-03 05:16:20,15.69899584,0.0002562,69.9979,334.856,253.5414,106.55,-1.085e-05,-1.515e-05,0.0,0 STARLINK-6339,1 56771U 23078E   23307.21967708 -.00001515  00000-0 -10850-4 0  9993,2 56771  69.9979 334.8560 0002562 253.5414 106.5500 15.69899584 24787,6737.321,91.726,360.912,357.46,0.0
56771.0,STARLINK-6339,PAYLOAD,2023-11-03 11:23:22,15.69875798,0.0002099,69.9993,334.1403,275.7021,84.3935,-2.2072e-05,-2.859e-05,0.0,0 STARLINK-6339,1 56771U 23078E   23307.47456436 -.00002859  00000-0 -22072-4 0  9993,2 56771  69.9993 334.1403 0002099 275.7021  84.3935 15.69875798 24828,6737.389,91.727,360.669,357.84,0.0
56771.0,STARLINK-6339,PAYLOAD,2023-11-03 19:02:06,15.69902771,0.0002648,69.9977,333.2419,278.6186,81.471,-2.502e-05,-3.217e-05,0.0,0 STARLINK-6339,1 56771U 23078E   23307.79313521 -.00003217  00000-0 -25020-4 0  9990,2 56771  69.9977 333.2419 0002648 278.6186  81.4710 15.69902771 24877,6737.312,91.725,360.961,357.393,0.0
56771.0,STARLINK-6339,PAYLOAD,2023-11-04 04:12:35,15.6992947,0.000306,69.9982,332.1693,271.7208,88.3637,4.9959e-06,3.88e-06,0.0,0 STARLINK-6339,1 56771U 23078E   23308.17541264  .00000388  00000-0  49959-5 0  9992,2 56771  69.9982 332.1693 0003060 271.7208  88.3637 15.69929470 24939,6737.236,91.724,361.162,357.039,0.0
56771.0,STARLINK-6339,PAYLOAD,2023-11-04 11:51:20,15.69933908,0.0002894,69.9979,331.2726,269.1375,90.9489,6.9952e-06,6.29e-06,0.0,0 STARLINK-6339,1 56771U 23078E   23308.49399146  .00000629  00000-0  69952-5 0  9990,2 56771  69.9979 331.2726 0002894 269.1375  90.9489 15.69933908 24724,6737.223,91.724,361.038,357.138,0.0
56771.0,STARLINK-6339,PAYLOAD,2023-11-05 04:40:37,15.69939791,0.0002618,69.9972,329.3018,274.2602,85.8295,-1.2215e-06,-3.59e-06,0.0,0 STARLINK-6339,1 56771U 23078E   23309.19487320 -.00000359  00000-0 -12215-5 0  9992,2 56771  69.9972 329.3018 0002618 274.2602  85.8295 15.69939791 25098,6737.206,91.723,360.835,357.307,0.0
56771.0,STARLINK-6339,PAYLOAD,2023-11-05 10:47:37,15.69935116,0.0002884,69.9971,328.585,267.7621,92.3245,1.2219e-05,1.257e-05,0.0,0 STARLINK-6339,1 56771U 23078E   23309.44973737  .00001257  00000-0  12219-4 0  9991,2 56771  69.9971 328.5850 0002884 267.7621  92.3245 15.69935116 24875,6737.22,91.724,361.028,357.142,0.0
56771.0,STARLINK-6339,PAYLOAD,2023-11-05 18:26:24,15.69904684,0.0002243,69.9988,327.6892,269.0198,91.0741,2.0622e-05,2.266e-05,0.0,0 STARLINK-6339,1 56771U 23078E   23309.76834069  .00002266  00000-0  20622-4 0  9998,2 56771  69.9988 327.6892 0002243 269.0198  91.0741 15.69904684 25180,6737.307,91.725,360.683,357.661,0.0
56771.0,STARLINK-6339,PAYLOAD,2023-11-06 03:36:52,15.69954866,0.0002755,69.9997,326.6149,268.4395,91.6485,2.1326e-05,2.356e-05,0.0,0 STARLINK-6339,1 56771U 23078E   23310.15060704  .00002356  00000-0  21326-4 0  9992,2 56771  69.9997 326.6149 0002755 268.4395  91.6485 15.69954866 25249,6737.163,91.722,360.884,357.172,0.0
56771.0,STARLINK-6339,PAYLOAD,2023-11-06 11:15:44,15.69867598,0.000296,69.9972,325.7198,265.1472,94.9385,-6.9894e-05,-8.588e-05,0.0,0 STARLINK-6339,1 56771U 23078E   23310.46926036 -.00008588  00000-0 -69894-4 0  9992,2 56771  69.9972 325.7198 0002960 265.1472  94.9385 15.69867598 25299,6737.413,91.727,361.272,357.284,0.0
